*******************************************************************************
Ephemeris / WWW_USER Tue Mar 27 22:41:55 2018 Pasadena, USA      / Horizons    
*******************************************************************************
Target body name: XMM-Newton (spacecraft) (-125989) {source: xmm}
Center body name: Earth-Moon Barycenter (3)       {source: DE431mx}
Center-site name: BODY CENTER
*******************************************************************************
Start time      : A.D. 2000-Jan-01 00:00:00.0000 TDB
Stop  time      : A.D. 2005-Jan-01 00:00:00.0000 TDB
Step-size       : 7200 minutes
*******************************************************************************
Center geodetic : 0.00000000,0.00000000,0.0000000 {E-lon(deg),Lat(deg),Alt(km)}
Center cylindric: 0.00000000,0.00000000,0.0000000 {E-lon(deg),Dxy(km),Dz(km)}
Center radii    : (undefined)                                                  
Output units    : AU-D                                                         
Output type     : GEOMETRIC cartesian states
Output format   : 2 (position and velocity)
Reference frame : ICRF/J2000.0                                                 
Coordinate systm: Ecliptic and Mean Equinox of Reference Epoch                 
*******************************************************************************
JDTDB
   X     Y     Z
   VX    VY    VZ
*******************************************************************************
$$SOE
2452594.500000000 = A.D. 2002-Nov-16 00:00:00.0000 TDB 
   1.696364662472918E-04  1.770448712428542E-04 -3.810639862136892E-04
  -2.777839457196554E-04  7.324475103203914E-04 -1.081730081851828E-03
2452599.500000000 = A.D. 2002-Nov-21 00:00:00.0000 TDB 
  -2.671038010356228E-04  3.901523169205648E-04 -5.705866472669608E-04
  -3.571216181506754E-04 -1.846795218957087E-04  4.548772012255181E-04
2452604.500000000 = A.D. 2002-Nov-26 00:00:00.0000 TDB 
   2.125802345257607E-04  1.794018666498862E-04 -4.181337050392632E-04
  -3.177809310670287E-04  7.023668280885132E-04 -9.885983723263770E-04
2452609.500000000 = A.D. 2002-Dec-01 00:00:00.0000 TDB 
  -2.376655366639167E-04  4.277272113436358E-04 -5.578592143078064E-04
  -3.499153470105727E-04 -1.988728410219796E-04  4.930848988495931E-04
2452614.500000000 = A.D. 2002-Dec-06 00:00:00.0000 TDB 
   1.771211738385850E-04  2.518564400110136E-04 -4.442147723214094E-04
  -3.646135723432685E-04  6.564397195558257E-04 -9.002313405822567E-04
2452619.500000000 = A.D. 2002-Dec-11 00:00:00.0000 TDB 
  -3.048508441436470E-04  4.229229667306470E-04 -5.375359470092853E-04
  -3.310975091693144E-04 -2.333298070568927E-04  5.279077856933933E-04
2452624.500000000 = A.D. 2002-Dec-16 00:00:00.0000 TDB 
   1.459493658978003E-04  2.158982058496493E-04 -4.675000001877134E-04
  -3.789422598208636E-04  6.208244839945735E-04 -8.324739485568690E-04
2452629.500000000 = A.D. 2002-Dec-21 00:00:00.0000 TDB 
  -2.754159420576054E-04  3.779088766588022E-04 -5.267422586252588E-04
  -3.024041725718234E-04 -2.469972839783284E-04  5.609559269659415E-04
2452634.500000000 = A.D. 2002-Dec-26 00:00:00.0000 TDB 
   1.897427499999001E-04  2.448012692008988E-04 -4.935326094677560E-04
  -4.042249769344635E-04  6.046680289462279E-04 -7.700756812659451E-04
2452639.500000000 = A.D. 2002-Dec-31 00:00:00.0000 TDB 
  -2.751731016886300E-04  4.292778788971590E-04 -5.090921410607051E-04
  -2.977022624878915E-04 -2.679883039708036E-04  5.974139423713640E-04
2452644.500000000 = A.D. 2003-Jan-05 00:00:00.0000 TDB 
   1.276566166477438E-04  2.859878408406580E-04 -5.085018898899922E-04
  -4.282639326504434E-04  5.666394761850771E-04 -7.101928822109853E-04
2452649.500000000 = A.D. 2003-Jan-10 00:00:00.0000 TDB 
  -3.298974074037265E-04  3.890738897107548E-04 -4.876675191140787E-04
  -2.713763435041000E-04 -3.021311976441632E-04  6.335659403344573E-04
2452654.500000000 = A.D. 2003-Jan-15 00:00:00.0000 TDB 
   1.281674062603600E-04  2.450319698532656E-04 -5.295654434388200E-04
  -4.318917958685368E-04  5.427689198556055E-04 -6.540836563863605E-04
2452659.500000000 = A.D. 2003-Jan-20 00:00:00.0000 TDB 
  -2.827159521755668E-04  3.698698583180536E-04 -4.724861935426778E-04
  -2.457337044075666E-04 -3.154303785761606E-04  6.721167402170660E-04
2452664.500000000 = A.D. 2003-Jan-25 00:00:00.0000 TDB 
   1.535586855474630E-04  3.014690153312929E-04 -5.474448396113118E-04
  -4.562232337351287E-04  5.272006564328239E-04 -6.009489710130144E-04
2452669.500000000 = A.D. 2003-Jan-30 00:00:00.0000 TDB 
  -3.165196916224944E-04  4.123328023625942E-04 -4.485514164967639E-04
  -2.348088224354476E-04 -3.495607018485839E-04  7.100939929924945E-04
2452674.500000000 = A.D. 2003-Feb-04 00:00:00.0000 TDB 
   8.590696570488531E-05  3.047332156886893E-04 -5.572205023211568E-04
  -4.671159584028877E-04  4.934844730367976E-04 -5.539554121197550E-04
2452679.500000000 = A.D. 2003-Feb-09 00:00:00.0000 TDB 
  -3.411523110363518E-04  3.491581185185225E-04 -4.273960159567726E-04
  -2.001143767371865E-04 -3.842140215360312E-04  7.483832906847182E-04
2452684.500000000 = A.D. 2003-Feb-14 00:00:00.0000 TDB 
   1.148813073171196E-04  2.778367598596613E-04 -5.756166631943763E-04
  -4.678415048720722E-04  4.793716352203427E-04 -5.058403113378265E-04
2452689.500000000 = A.D. 2003-Feb-19 00:00:00.0000 TDB 
  -2.939006107109018E-04  3.601848933305577E-04 -4.074167181127791E-04
  -1.777485634102309E-04 -4.043823973768509E-04  7.913193058660034E-04
2452694.500000000 = A.D. 2003-Feb-24 00:00:00.0000 TDB 
   1.074089567189724E-04  3.468208442505859E-04 -5.862200087518988E-04
  -4.895483039978883E-04  4.566120940910132E-04 -4.585493260365800E-04
2452699.500000000 = A.D. 2003-Mar-01 00:00:00.0000 TDB 
  -3.497849946407129E-04  3.735700347913761E-04 -3.792669213874013E-04
  -1.530663672174768E-04 -4.506339421411632E-04  8.313752430672662E-04
2452704.500000000 = A.D. 2003-Mar-06 00:00:00.0000 TDB 
   6.396914544709593E-05  3.105239123218281E-04 -5.870780760792046E-04
  -4.854652000552880E-04  4.428336832689752E-04 -4.465949944537267E-04
2452709.500000000 = A.D. 2003-Mar-11 00:00:00.0000 TDB 
  -3.352878085796737E-04  3.149211332034192E-04 -3.725133485272677E-04
  -1.302321004523124E-04 -4.635630679435869E-04  8.483198500707260E-04
2452714.500000000 = A.D. 2003-Mar-16 00:00:00.0000 TDB 
   1.066523869990380E-04  3.129779361960092E-04 -6.038595406215154E-04
  -4.898297622770046E-04  4.318608990545439E-04 -3.984652613310102E-04
2452719.500000000 = A.D. 2003-Mar-21 00:00:00.0000 TDB 
  -3.063541613209428E-04  3.488583442429535E-04 -3.458342007595524E-04
  -1.029769256199351E-04 -5.000165175531509E-04  8.983700054462311E-04
2452724.500000000 = A.D. 2003-Mar-26 00:00:00.0000 TDB 
   6.223188867781849E-05  3.733760393578862E-04 -6.103116995512819E-04
  -5.044982439117798E-04  3.992906943253212E-04 -3.510973533136100E-04
2452729.500000000 = A.D. 2003-Mar-31 00:00:00.0000 TDB 
  -3.636802393276171E-04  3.237594650456633E-04 -3.150032938385759E-04
  -5.792423411060381E-05 -5.568539873035390E-04  9.433078145854191E-04
2452734.500000000 = A.D. 2003-Apr-05 00:00:00.0000 TDB 
   3.832283425592225E-05  3.295815528910376E-04 -6.201723543953435E-04
  -4.971499924189068E-04  3.742214328480748E-04 -3.110258664247329E-04
2452739.500000000 = A.D. 2003-Apr-10 00:00:00.0000 TDB 
  -3.198126306014897E-04  2.739174246200823E-04 -2.936600360633226E-04
  -3.307258326347186E-06 -5.941291385417557E-04  9.885000542829033E-04
2452744.500000000 = A.D. 2003-Apr-15 00:00:00.0000 TDB 
   7.847273507655997E-05  3.629522885136409E-04 -6.312838372396991E-04
  -5.052216403373225E-04  3.660776472531920E-04 -2.701259409312393E-04
2452749.500000000 = A.D. 2003-Apr-20 00:00:00.0000 TDB 
  -3.198025286020938E-04  3.155769109171127E-04 -2.623248075536458E-04
   3.865863428201969E-05 -6.485755374914688E-04  1.039604823894942E-03
2452754.500000000 = A.D. 2003-Apr-25 00:00:00.0000 TDB 
   1.077097246854381E-05  3.928231437623361E-04 -6.331653237124339E-04
  -5.085083569697033E-04  3.327103892615478E-04 -2.304885590696165E-04
2452759.500000000 = A.D. 2003-Apr-30 00:00:00.0000 TDB 
  -3.555392343156140E-04  2.577916427202197E-04 -2.328429044595180E-04
   1.078248439375687E-04 -7.110799183654399E-04  1.086250641752395E-03
2452764.500000000 = A.D. 2003-May-05 00:00:00.0000 TDB 
   1.786420756412191E-05  3.516306814556566E-04 -6.430238160604570E-04
  -4.961566996332150E-04  3.155414395517247E-04 -1.917864940675477E-04
2452769.500000000 = A.D. 2003-May-10 00:00:00.0000 TDB 
  -2.941237077181565E-04  2.349692097827644E-04 -2.059937816701125E-04
   1.837666130048928E-04 -7.621783604703797E-04  1.139766739518006E-03
2452774.500000000 = A.D. 2003-May-15 00:00:00.0000 TDB 
   3.479261912979626E-05  4.090723311406515E-04 -6.484804595850911E-04
  -5.066673227230607E-04  3.025754278150913E-04 -1.526667450023593E-04
2452779.500000000 = A.D. 2003-May-20 00:00:00.0000 TDB 
  -3.222734882518233E-04  2.613372913171514E-04 -1.691125578392447E-04
   2.611498455427194E-04 -8.412578133814720E-04  1.192031196949030E-03
2452784.500000000 = A.D. 2003-May-25 00:00:00.0000 TDB 
  -3.491153774124976E-05  4.012517373105711E-04 -6.484025727874306E-04
  -5.012412516351987E-04  2.724141335329383E-04 -1.164741443982058E-04
2452789.500000000 = A.D. 2003-May-30 00:00:00.0000 TDB 
  -3.207221080167111E-04  1.842898310390193E-04 -1.381321332910459E-04
   3.772040280023002E-04 -9.212266746675661E-04  1.243803090054405E-03
2452794.500000000 = A.D. 2003-Jun-04 00:00:00.0000 TDB 
  -2.429063276583628E-06  3.781208068619677E-04 -6.564770593670728E-04
  -4.907725053132011E-04  2.644030428332130E-04 -7.968130834354061E-05
2452799.500000000 = A.D. 2003-Jun-09 00:00:00.0000 TDB 
  -2.591984486166387E-04  1.879825312520086E-04 -1.037500202348292E-04
   5.068184710333815E-04 -1.004532037159228E-03  1.299106178985369E-03
